[{"OBJECT_NAME":"STARLINK-4144","OBJECT_ID":"2022-086R","EPOCH":"2026-03-09T14:44:04.925760","MEAN_MOTION":15.0884349,"ECCENTRICITY":0.0001162,"INCLINATION":53.2167,"RA_OF_ASC_NODE":194.4603,"ARG_OF_PERICENTER":98.4624,"MEAN_ANOMALY":261.65,"EPHEMERIS_TYPE":0,"CLASSIFICATION_TYPE":"U","NORAD_CAT_ID":53257,"ELEMENT_SET_NO":999,"REV_AT_EPOCH":20105,"BSTAR":-1.3508e-5,"MEAN_MOTION_DOT":-5.03e-6,"MEAN_MOTION_DDOT":0},{"OBJECT_NAME":"DISKSAT D","OBJECT_ID":"2025-305C","EPOCH":"2026-03-09T13:15:42.202656","MEAN_MOTION":15.07416577,"ECCENTRICITY":0.00037124,"INCLINATION":45.0023,"RA_OF_ASC_NODE":251.6339,"ARG_OF_PERICENTER":319.2749,"MEAN_ANOMALY":40.7848,"EPHEMERIS_TYPE":0,"CLASSIFICATION_TYPE":"U","NORAD_CAT_ID":67221,"ELEMENT_SET_NO":999,"REV_AT_EPOCH":1227,"BSTAR":0.00076840651,"MEAN_MOTION_DOT":0.00011599,"MEAN_MOTION_DDOT":0}]
